PROGRESS-MS 32          
1 65586U 25204A   25332.54438814  .00008991  00000+0  17015-3 0  9998
2 65586  51.6312 212.7497 0003745 179.2752 180.8242 15.49168962   279
CYGNUS NG-23            
1 65616U 25208A   25332.54438814  .00008991  00000+0  17015-3 0  9996
2 65616  51.6312 212.7497 0003745 179.2752 180.8242 15.49168962   228
DRAGONFLY               
1 65729U 98067XH  25333.04700711  .00127511  00000+0  11600-2 0  9991
2 65729  51.6267 205.6040 0006357 196.4876 163.5914 15.67011643 11013
1998-067XJ              
1 65730U 98067XJ  25333.03673626  .01442919  11845-2  25945-2 0  9998
2 65730  51.6156 200.9674 0011699 211.4242 148.6070 16.01129071 11070
1998-067XK              
1 65731U 98067XK  25333.06158859  .00082770  00000+0  90030-3 0  9998
2 65731  51.6292 206.4604 0006023 170.6962 189.4145 15.62709008 11005
RSP-03                  
1 65732U 98067XL  25333.02376213  .00101188  00000+0  10124-2 0  9991
2 65732  51.6270 206.2029 0006905 172.5964 187.5134 15.64738825 11012
GHS-01                  
1 65733U 98067XM  25333.01834124  .00152819  00000+0  12890-2 0  9990
2 65733  51.6287 205.4180 0006848 194.8011 165.2786 15.68769203 11021
YOTSUBA-KULOVER         
1 65941U 98067XN  25332.09018959  .00066291  00000+0  89666-3 0  9992
2 65941  51.6290 213.4702 0002444 143.7516 216.3642 15.57098024  7574
BOTAN                   
1 65942U 98067XP  25332.05801197  .00091596  00000+0  11306-2 0  9994
2 65942  51.6292 213.2561 0004661 146.1415 213.9876 15.59384100  7573
E-KAGAKU-1              
1 65943U 98067XQ  25331.96158062  .00062641  00000+0  84931-3 0  9994
2 65943  51.6304 214.1133 0003875 126.2761 233.8589 15.57053935  7559
HRC MONOBLOCK CAMERA    
1 66052U 98067XR  25333.20641854  .00035960  00000+0  57274-3 0  9995
2 66052  51.6295 208.9203 0004597 130.2215 229.9177 15.52898360  6732
HTV-X1                  
1 66174U 25241A   25332.54438814  .00008991  00000+0  17015-3 0  9993
2 66174  51.6312 212.7497 0003745 179.2752 180.8242 15.49168962   510
